STARLINK-36870          
1 67897U 26035U   26063.55958101 -.00263452  27714-4 -51056-3 0  9993
2 67897  97.2760 355.5181 0000891  38.1993 321.9349 16.00269203  3024
STARLINK-36810          
1 67898U 26035V   26063.30880836 -.00280598  31237-4 -52828-3 0  9999
2 67898  97.2753 355.2471 0000956 112.9016 247.2364 16.00780605  2980
STARLINK-36878          
1 67899U 26035W   26063.55766656 -.00325919  40946-4 -62158-3 0  9991
2 67899  97.2744 355.5215 0000957 102.8484 257.2902 16.00563329  3025
STARLINK-36361          
1 67900U 26035X   26063.55696362 -.00071718  41955-5 -13387-3 0  9997
2 67900  97.2745 355.5225 0000275 132.9674 227.1628 16.00794751  3024
STARLINK-36336          
1 67901U 26035Y   26063.36732982 -.00130963  87582-5 -23903-3 0  9995
2 67901  97.2744 355.3203 0001776  37.9588 322.1816 16.01262092  2992
STARLINK-36876          
1 67902U 26035Z   26063.00001157 -.01093955  39445-3 -19706-2 0  9998
2 67902  97.2750 354.9178 0001091 118.7727 276.8029 16.01665709  2846
STARLINK-36257          
1 67903U 26035AA  26063.30566882 -.00310406  37765-4 -56797-3 0  9991
2 67903  97.2739 355.2501 0000633 110.2986 249.8362 16.01284235  2989
STARLINK-36814          
1 67904U 26036A   26063.50001157  .00072396  00000+0  34459-3 0  9993
2 67904  42.9946 281.6144 0002717 264.3718 256.6068 15.81943413  2819
STARLINK-36729          
1 67905U 26036B   26063.50001157  .00075102  00000+0  35736-3 0  9991
2 67905  42.9960 281.6030 0002268 264.3512 260.8978 15.81939261  2816
STARLINK-36763          
1 67906U 26036C   26063.50001157  .00060475  00000+0  28861-3 0  9990
2 67906  42.9960 281.5923 0001770 260.8035 268.7105 15.81949787  2818
STARLINK-36742          
1 67907U 26036D   26063.50001157  .00060467  00000+0  28872-3 0  9994
2 67907  42.9960 281.5816 0002489 252.0721 281.7232 15.81936791  2810
STARLINK-36827          
1 67908U 26036E   26063.50001157  .00099471  00000+0  47120-3 0  9999
2 67908  42.9944 281.5708 0002136 249.9551 288.1007 15.81937909  2811
